INMARSAT 4-F3           
1 33278U 08039A   24254.84850896 -.00000133  00000+0  00000+0 0  9994
2 33278   3.7699  28.0545 0002704 155.0690  14.7106  1.00272027 40084
NIMIQ 4                 
1 33373U 08044A   24255.13782042 -.00000215  00000+0  00000+0 0  9997
2 33373   0.0341 129.4105 0001640  60.1596 128.7272  1.00267935 58385
GALAXY 19 (G-19)        
1 33376U 08045A   24254.49110457 -.00000133  00000+0  00000+0 0  9993
2 33376   0.0542 274.5329 0002827 254.0639 261.2242  1.00272106 58433
ASTRA 1M                
1 33436U 08057A   24254.51407903  .00000127  00000+0  00000+0 0  9993
2 33436   0.0292 278.1991 0005599 241.4895  34.6372  1.00275142 58013
EUTELSAT HOTBIRD 13C    
1 33459U 08065A   24254.94339875 -.00000095  00000+0  00000+0 0  9991
2 33459   1.2797  86.4820 0004541  91.3606 139.7547  1.00272151 40884
EXPRESS-AM44            
1 33595U 09007A   24254.96871920 -.00000083  00000+0  00000+0 0  9990
2 33595   1.7929  86.2702 0004131  77.3406 164.6151  1.00272315 45820
NSS-9                   
1 33749U 09008A   24254.83287050  .00000078  00000+0  00000+0 0  9996
2 33749   0.0460 309.4097 0002130 210.1356 313.7191  1.00273503 57068
EUTELSAT 33E            
1 33750U 09008B   24254.84903024 -.00000143  00000+0  00000+0 0  9999
2 33750   1.0000  87.8614 0004891  82.5635  30.2265  1.00272156 56986
TELSTAR 11N             
1 34111U 09009A   24254.86058531 -.00000245  00000+0  00000+0 0  9991
2 34111   0.0222 147.6220 0002523   4.7569 110.2607  1.00270511 56952
WGS F2 (USA 204)        
1 34713U 09017A   24254.86924567  .00000073  00000+0  00000+0 0  9997
2 34713   0.0182 133.6311 0001150  31.5228 195.6862  1.00270536 39156
SES-7 (PROTOSTAR 2)     
1 34941U 09027A   24254.89529769 -.00000339  00000+0  00000+0 0  9995
2 34941   0.0287  60.2459 0001553 151.1169 209.6205  1.00270711 56154
MEASAT-3A               
1 35362U 09032A   24254.89976834 -.00000105  00000+0  00000+0 0  9999
2 35362   0.0219 235.8785 0001622 298.6422 299.7733  1.00271787 55772
GOES 14                 
1 35491U 09033A   24254.98951573 -.00000062  00000+0  00000+0 0  9998
2 35491   0.0134 168.9360 0004158 348.0418  81.3768  1.00271009 55699
FM-5                    
1 35493U 09034A   24254.85085472 -.00000194  00000+0  00000+0 0  9999
2 35493   0.0432 275.4742 0000220 202.8528  92.2123  1.00271091 40180
TERRESTAR-1             
1 35496U 09035A   24254.82165257 -.00000050  00000+0  00000+0 0  9991
2 35496   4.5917  47.8658 0002700 132.6211 354.6390  1.00272185 55677
ASIASAT 5               
1 35696U 09042A   24254.89031361 -.00000302  00000+0  00000+0 0  9996
2 35696   0.0190 137.8213 0001683  22.3870 251.2162  1.00273182 55245
JCSAT-12 (JCSAT-RA)     
1 35755U 09044A   24254.86021791 -.00000322  00000+0  00000+0 0  9999
2 35755   0.0142 121.1332 0001632   8.3673 302.6195  1.00270872 55144
OPTUS D3                
1 35756U 09044B   24254.89898642 -.00000141  00000+0  00000+0 0  9999
2 35756   0.2237  83.0216 0002709  65.6715 321.3691  1.00271866 55174
NIMIQ 5                 
1 35873U 09050A   24255.13964490 -.00000252  00000+0  00000+0 0  9992
2 35873   0.0340 265.2576 0002767 259.8953 163.0834  1.00272313 54879
AMAZONAS 2              
1 35942U 09054A   24254.85589377 -.00000277  00000+0  00000+0 0  9995
2 35942   0.1377  98.8255 0005466  78.7831  60.0839  1.00269870 54722
COMSATBW-1              
1 35943U 09054B   24255.02357280  .00000029  00000+0  00000+0 0  9996
2 35943   0.0169 123.0051 0003187  67.6277 231.4208  1.00275384 54805
NSS-12                  
1 36032U 09058A   24254.86924567  .00000077  00000+0  00000+0 0  9992
2 36032   0.0223  70.6562 0003519  95.7085 193.9600  1.00273095 54454
THOR 6                  
1 36033U 09058B   24254.90606854 -.00000004  00000+0  00000+0 0  9995
2 36033   0.0106 207.6014 0001846 310.0040 158.1419  1.00272549 54548
INTELSAT 14 (IS-14)     
1 36097U 09064A   24254.88784927 -.00000268  00000+0  00000+0 0  9999
2 36097   0.0304 283.5566 0002316 249.8899  91.5973  1.00268245 54146
EUTELSAT 36B            
1 36101U 09065A   24254.80359181  .00000161  00000+0  00000+0 0  9999
2 36101   0.0681 342.1350 0005162 187.9881 145.4000  1.00274498 54246
INTELSAT 15 (IS-15)     
1 36106U 09067A   24254.88248424 -.00000180  00000+0  00000+0 0  9993
2 36106   0.0222 144.7093 0002350  32.4717 216.0629  1.00270220 34766
WGS F3 (USA 211)        
1 36108U 09068A   24254.46453885  .00000023  00000+0  00000+0 0  9994
2 36108   0.0902  89.4587 0001594 152.4443 165.5986  0.99716851 40138
DIRECTV 12              
1 36131U 09075A   24255.21214281 -.00000099  00000+0  00000+0 0  9991
2 36131   0.0088 209.4025 0000337 228.4140 246.5803  1.00271599 53930
BEIDOU-2 G1             
1 36287U 10001A   24254.96744812 -.00000274  00000+0  00000+0 0  9998
2 36287   2.7992  59.0669 0002633 293.1831 126.9477  1.00274488 53708
RADUGA-1M 2             
1 36358U 10002A   24254.88159273 -.00000179  00000+0  00000+0 0  9994
2 36358   1.9362  87.3144 0002215 107.5999 197.8993  1.00272254 43629
SDO                     
1 36395U 10005A   24254.09094542 -.00000066  00000+0  00000+0 0  9993
2 36395  33.2942  96.2641 0001143 168.3815  15.8921  1.00275859 53595
INTELSAT 16 (IS-16)     
1 36397U 10006A   24255.13894986 -.00000239  00000+0  00000+0 0  9994
2 36397   0.0187 130.9600 0002952  61.4847 132.0160  1.00268772 53265
EWS-G2 (GOES 15)        
1 36411U 10008A   24254.86924567  .00000043  00000+0  00000+0 0  9993
2 36411   0.3868 274.7758 0005525 298.7022 151.2430  1.00269757 53189
ECHOSTAR 14             
1 36499U 10010A   24254.98743059  .00000006  00000+0  00000+0 0  9999
2 36499   0.0159 161.5821 0002221   7.7443  57.7508  1.00270762 53076
SES-1                   
1 36516U 10016A   24254.49032264 -.00000108  00000+0  00000+0 0  9994
2 36516   0.0530 294.8841 0002300 242.2364 248.4137  1.00272624 52566
ASTRA 3B                
1 36581U 10021A   24254.87231417  .00000142  00000+0  00000+0 0  9992
2 36581   0.0267  50.5864 0003517 105.4373 171.8857  1.00270041 52411
COMSATBW-2              
1 36582U 10021B   24254.87057654  .00000094  00000+0  00000+0 0  9998
2 36582   0.0290 117.7334 0002507  68.5362 130.7210  1.00272994 52495
BEIDOU-2 G3             
1 36590U 10024A   24254.88094602 -.00000130  00000+0  00000+0 0  9997
2 36590   2.9966  61.5891 0005721 357.3130 328.2472  1.00273741 52307
BADR-5                  
1 36592U 10025A   24254.80168045  .00000150  00000+0  00000+0 0  9996
2 36592   0.0318 135.5920 0005621  30.2711 139.0520  1.00270375 46759
COMS 1                  
1 36744U 10032A   24254.73767997 -.00000339  00000+0  00000+0 0  9996
2 36744   3.1647  83.4412 0000888  90.5233 210.0034  1.00270969 44625
ARABSAT-5A              
1 36745U 10032B   24255.01714366  .00000159  00000+0  00000+0 0  9990
2 36745   0.0526  28.9947 0004522 129.9355 228.2627  1.00274532 52174
ECHOSTAR 15             
1 36792U 10034A   24254.42663428 -.00000275  00000+0  00000+0 0  9990
2 36792   0.0428 276.9207 0002435 223.7374 301.2425  1.00273131 51852
BEIDOU-2 IGSO-1         
1 36828U 10036A   24254.75398522 -.00000129  00000+0  00000+0 0  9996
2 36828  54.2556 168.7951 0041000 204.8975 354.4001  1.00257505 51742
NILESAT 201             
1 36830U 10037A   24254.86666694 -.00000052  00000+0  00000+0 0  9995
2 36830   0.0206 144.5436 0005893  33.1537 117.6971  1.00272296 51821
RASCOM-QAF 1R           
1 36831U 10037B   24254.79698891  .00000025  00000+0  00000+0 0  9991
2 36831   0.0436 111.3805 0005338  66.9857 101.7844  1.00273758 51830
AEHF-1 (USA 214)        
1 36868U 10039A   24254.83521748  .00000097  00000+0  00000+0 0  9993
2 36868   6.5925  76.2186 0003625  73.0482 152.6319  1.00411966 51977
XM-5                    
1 37185U 10053A   24254.91662312 -.00000017  00000+0  00000+0 0  9997
2 37185   0.0448  92.3703 0000500 354.4940 118.3587  1.00270616 50988
BSAT-3B                 
1 37207U 10056B   24254.82393797 -.00000345  00000+0  00000+0 0  9997
2 37207   0.0762 304.3831 0001784 324.2336 128.1905  1.00269553 45647
BEIDOU-2 G4             
1 37210U 10057A   24254.89976834 -.00000105  00000+0  00000+0 0  9992
2 37210   2.0468  69.6127 0006895 157.4380 247.4203  1.00272134 50829
SKYTERRA 1              
1 37218U 10061A   24254.84790079 -.00000111  00000+0  00000+0 0  9992
2 37218   3.7799  49.0011 0002862 161.2639 344.0764  1.00272614 50735
HYLAS 1                 
1 37237U 10065A   24254.82800520 -.00000118  00000+0  00000+0 0  9995
2 37237   3.9898  80.8503 0001823  96.9455 269.3426  1.00271590   431
INTELSAT 17 (IS-17)     
1 37238U 10065B   24255.02418097  .00000004  00000+0  00000+0 0  9996
2 37238   0.0070 156.1644 0002715  20.7407 248.3568  1.00271038 50467
BEIDOU-2 IGSO-2         
1 37256U 10068A   24254.46963263 -.00000158  00000+0  00000+0 0  9997
2 37256  48.7236 279.7793 0040440 217.6741 129.6959  1.00276225 50325
EUTELSAT KA-SAT 9A      
1 37258U 10069A   24254.79829212  .00000068  00000+0  00000+0 0  9990
2 37258   0.0894 287.1140 0001570 177.2540 182.3221  1.00274453 37544
HISPASAT 30W-5          
1 37264U 10070A   24253.64606001 -.00000208  00000+0  00000+0 0  9998
2 37264   0.0200 134.4933 0005563  30.8708  26.4160  1.00273011 46710
KOREASAT 6              
1 37265U 10070B   24254.87547108 -.00000356  00000+0  00000+0 0  9991
2 37265   0.0125 281.9494 0002107 294.7546 204.8664  1.00270060 50301
BEIDOU-2 IGSO-3         
1 37384U 11013A   24254.89240472 -.00000150  00000+0  00000+0 0  9999
2 37384  61.4846  46.2877 0032511 174.4728 198.0143  1.00287468 49202
INTELSAT 28 (IS-28)     
1 37392U 11016A   24254.65997859  .00000162  00000+0  00000+0 0  9995
2 37392   0.1289  93.6079 0002843  88.5962  78.3874  1.00273922 46828
YAHSAT 1A               
1 37393U 11016B   24254.25188522  .00000108  00000+0  00000+0 0  9991
2 37393   0.0168 231.0564 0001956 290.3905 331.4995  1.00270566 35944
